#aV2016  4  8  0  0  0.00000000     288 DD+AD WGS84 FIT  NGA
## 1891 432000.00000000   300.00000000 57486 0.0000000000000
+   31     1  2  3  5  6  7  8  9 10 11 12 13 14 15 16 17 18
+         19 20 21 22 23 24 25 26 27 28 29 30 31 32  0  0  0
+          0  0  0  0  0  0  0  0  0  0  0  0  0  0  0  0  0
+          0  0  0  0  0  0  0  0  0  0  0  0  0  0  0  0  0
+          0  0  0  0  0  0  0  0  0  0  0  0  0  0  0  0  0
++         2  2  2  2  2  2  2  2  2  2  2  2  2  2  2  2  2
++         2  2  2  2  2  2  2  2  2  2  2  2  2  2  0  0  0
++         0  0  0  0  0  0  0  0  0  0  0  0  0  0  0  0  0
++         0  0  0  0  0  0  0  0  0  0  0  0  0  0  0  0  0
++         0  0  0  0  0  0  0  0  0  0  0  0  0  0  0  0  0
%c cc cc ccc ccc cccc cccc cccc cccc ccccc ccccc ccccc ccccc
%c cc cc ccc ccc cccc cccc cccc cccc ccccc ccccc ccccc ccccc
%f  0.0000000  0.000000000  0.00000000000  0.000000000000000
%f  0.0000000  0.000000000  0.00000000000  0.000000000000000
%i    0    0    0    0      0      0      0      0         0
%i    0    0    0    0      0      0      0      0         0
/*      NGA, ST. LOUIS,MO.                                  
/*   EPHEMERIS COMPUTED FROM 2 DAYS OF DATA                 
/*   EPOCHA v2.4 SMOOTHER                                   
/*   G1762 IERS2010 SATAF SATAPC                            
*  2016  4  8 14 25  0.00000000
P  1 -17217.398899  -4283.452344  19761.148136     16.725519                    
V  1  -9824.276909 -23205.360262 -13315.203314      0.011325                    
P  2  14558.002075  22135.376855  -3459.054800    598.014930                    
V  2   -420.830152   5743.466954  30678.521081     -0.016595                    
P  3 -19214.018444   7135.389767  16903.056708    -45.264217                    
V  3  10619.543619 -18727.311874  19971.546692     -0.041634                    
P  5   9977.942899  12564.714935 -21209.006986   -130.677387                    
V  5 -15470.346898  21960.317327   5944.584235      0.031990                    
P  6   4513.656230  24412.010419   9455.670310    172.677194                    
V  6  -7437.473924  -9714.003611  28669.514423      0.056921                    
P  7 -10130.187405  12579.364775 -20874.785617    461.173424                    
V  7 -11933.480950 -24107.115425  -9069.537687     -0.019774                    
P  8 -25047.867735  -6147.437572  -6360.087735    -30.592515                    
V  8   8298.579267  -2062.950718 -30394.511767     -0.014390                    
P  9 -20545.839293   8791.302738 -14382.594578    105.897690                    
V  9 -18046.950803  -3453.839620  23683.335356      0.074660                    
P 10   9171.987434 -23569.587780   8024.210962      7.161239                    
V 10   7943.710675  -6923.246221 -29533.154871     -0.097345                    
P 11 -22033.695484  -6811.139685  12660.927305   -639.969171                    
V 11  -9776.289624 -14597.836067 -23789.446992     -0.014819                    
P 12  17991.394155  -2962.409289  19104.129741    375.548748                    
V 12 -13988.494759  20178.021754  16410.315194      0.014003                    
P 13  19650.021663  12583.366518 -12737.033753     -9.449583                    
V 13 -16071.776906   -980.808622 -26124.617903     -0.027083                    
P 14   3018.035228 -14964.783515  21987.733045     -7.202069                    
V 14  26969.010828   4249.757782   -973.313529     -0.021614                    
P 15  26447.673824   2711.802720  -3059.641654   -305.523733                    
V 15  -3771.126660   3338.170867 -30549.669535     -0.017602                    
P 16  -7942.112707 -12977.904349 -21812.921696    -26.078731                    
V 16  17447.824184 -21191.827336   6663.002033      0.028030                    
P 17  -5415.122621  14342.267622  22000.689581   -202.931728                    
V 17 -26884.108455  -3625.613113  -4500.625572     -0.003655                    
P 18  15893.641095 -20813.949413  -2924.738445    502.437727                    
V 18   1155.580411   5956.815218 -30822.217752      0.041669                    
P 19   5807.446568  15248.992857  20638.505557   -525.583170                    
V 19 -26585.318250  -3522.980148  10344.323682     -0.000734                    
P 20  18434.457427  -3668.061411 -18936.493357    404.640665                    
V 20 -10257.913609  21586.526121 -14233.832734      0.024545                    
P 21   7194.656248 -16358.157696 -18820.167277   -518.252534                    
V 21  13408.249472  21975.697466 -13708.259262     -0.015187                    
P 22 -15322.566744  -5775.701046  21182.063012    366.530103                    
V 22  13903.909053 -22515.021148   3804.626717     -0.072500                    
P 23 -26283.025185   1538.628641  -4811.042254   -168.451282                    
V 23  -6045.322319  -3294.776474  30367.119035     -0.017437                    
P 24  18164.202932   7348.519480  17960.134589    -15.186891                    
V 24   8895.510893  21150.779023 -17401.835520     -0.005928                    
P 25  19027.197535 -14588.234532  11094.326545   -149.258537                    
V 25  -6337.143195  13001.512227  27859.163527     -0.070916                    
P 26    -59.779496 -20707.416503 -16609.050321   -323.009242                    
V 26  13315.973875 -16476.586088  20543.477545     -0.137930                    
P 27 -18236.652708 -11841.741731 -15390.538162     80.122853                    
V 27  19477.994788   -299.602947 -22727.050699      0.038634                    
P 28 -11299.874508  22776.604805   8217.593519    514.765618                    
V 28  -7274.910134   6417.949222 -30149.799796      0.026703                    
P 29  22932.057315  -5336.418109 -12230.219645    656.754775                    
V 29  15158.200059   3954.502897  26712.167240      0.003072                    
P 30  -3433.940948  21229.110341 -15538.330651    114.727445                    
V 30  -9375.717513 -17546.974720 -22002.711540      0.035797                    
P 31  -5605.283522 -24790.602610   7134.919825    274.693017                    
V 31   6035.224203   7176.344787  30466.742941     -0.017655                    
P 32   2193.859045 -15099.985382  21742.030105      7.056284                    
V 32  27529.061765   2028.667033  -1375.049451     -0.025768                    
EOF
